NORAD_CAT_ID,OBJECT_NAME,OBJECT_TYPE,EPOCH,MEAN_MOTION,ECCENTRICITY,INCLINATION,RA_OF_ASC_NODE,ARG_OF_PERICENTER,MEAN_ANOMALY,BSTAR,MEAN_MOTION_DOT,MEAN_MOTION_DDOT,TLE_LINE0,TLE_LINE1,TLE_LINE2,SEMIMAJOR_AXIS,PERIOD,APOGEE,PERIGEE,DECAYED
55397.0,STARLINK-5224,PAYLOAD,2023-06-17 23:45:42,15.69924018,0.0004306,69.9977,63.6491,270.0267,90.0435,-9.1775e-06,-1.317e-05,0.0,0 STARLINK-5224,1 55397U 23014G   23168.99007625 -.00001317  00000-0 -91775-5 0  9995,2 55397  69.9977  63.6491 0004306 270.0267  90.0435 15.69924018 21755,6737.251,91.724,362.017,356.215,0.0
55397.0,STARLINK-5224,PAYLOAD,2023-06-18 02:49:12,15.69932074,0.0003399,69.9988,63.2923,260.1764,99.9048,5.0185e-06,3.91e-06,0.0,0 STARLINK-5224,1 55397U 23014G   23169.11750311  .00000391  00000-0  50185-5 0  9996,2 55397  69.9988  63.2923 0003399 260.1764  99.9048 15.69932074 21777,6737.228,91.724,361.383,356.803,0.0
55397.0,STARLINK-5224,PAYLOAD,2023-06-18 10:27:58,15.69926182,0.0003422,69.9985,62.394,268.9957,91.0847,3.2245e-06,1.75e-06,0.0,0 STARLINK-5224,1 55397U 23014G   23169.43608886  .00000175  00000-0  32245-5 0  9997,2 55397  69.9985  62.3940 0003422 268.9957  91.0847 15.69926182 22763,6737.245,91.724,361.416,356.805,0.0
55397.0,STARLINK-5224,PAYLOAD,2023-06-18 16:34:58,15.69929334,0.000348,69.9982,61.6773,269.6318,90.4479,-1.6654e-05,-2.215e-05,0.0,0 STARLINK-5224,1 55397U 23014G   23169.69095415 -.00002215  00000-0 -16654-4 0  9997,2 55397  69.9982  61.6773 0003480 269.6318  90.4479 15.69929334 22800,6737.236,91.724,361.446,356.757,0.0
55397.0,STARLINK-5224,PAYLOAD,2023-06-19 03:17:13,15.6994581,0.0003165,69.9967,60.422,260.8152,99.2685,-2.0422e-05,-2.67e-05,0.0,0 STARLINK-5224,1 55397U 23014G   23170.13696190 -.00002670  00000-0 -20422-4 0  9998,2 55397  69.9967  60.4220 0003165 260.8152  99.2685 15.69945810 21932,6737.189,91.723,361.186,356.922,0.0
55397.0,STARLINK-5224,PAYLOAD,2023-06-19 20:06:31,15.69921582,0.0003182,69.9991,58.4536,268.2134,91.8697,1.0404e-05,1.038e-05,0.0,0 STARLINK-5224,1 55397U 23014G   23170.83786321  .00001038  00000-0  10404-4 0  9995,2 55397  69.9991  58.4536 0003182 268.2134  91.8697 15.69921582 22984,6737.258,91.724,361.267,356.98,0.0
55397.0,STARLINK-5224,PAYLOAD,2023-06-19 23:10:01,15.69925128,0.0003636,69.9974,58.0954,266.4711,93.6069,3.4911e-06,2.07e-06,0.0,0 STARLINK-5224,1 55397U 23014G   23170.96529453  .00000207  00000-0  34911-5 0  9997,2 55397  69.9974  58.0954 0003636 266.4711  93.6069 15.69925128 22062,6737.248,91.724,361.563,356.664,0.0
55397.0,STARLINK-5224,PAYLOAD,2023-06-20 09:52:16,15.69931582,0.0003647,69.9974,56.8405,267.2656,92.8122,1.2672e-06,-6.1e-07,0.0,0 STARLINK-5224,1 55397U 23014G   23171.41130720 -.00000061  00000-0  12672-5 0  9992,2 55397  69.9974  56.8405 0003647 267.2656  92.8122 15.69931582 23072,6737.23,91.724,361.552,356.638,0.0
55397.0,STARLINK-5224,PAYLOAD,2023-06-20 19:02:47,15.69923258,0.0003681,69.9983,55.7658,268.0288,92.0486,1.4044e-05,1.476e-05,0.0,0 STARLINK-5224,1 55397U 23014G   23171.79361102  .00001476  00000-0  14044-4 0  9997,2 55397  69.9983  55.7658 0003681 268.0288  92.0486 15.69923258 23131,6737.254,91.724,361.599,356.639,0.0
55397.0,STARLINK-5224,PAYLOAD,2023-06-21 02:41:33,15.69938714,0.0003194,69.9984,54.871,264.1441,95.9391,-1.3063e-05,-1.784e-05,0.0,0 STARLINK-5224,1 55397U 23014G   23172.11218830 -.00001784  00000-0 -13063-4 0  9997,2 55397  69.9984  54.8710 0003194 264.1441  95.9391 15.69938714 22249,6737.209,91.723,361.226,356.922,0.0
55397.0,STARLINK-5224,PAYLOAD,2023-06-21 19:30:50,15.69920904,0.000363,69.9979,52.8992,261.527,98.5514,9.979e-06,9.87e-06,0.0,0 STARLINK-5224,1 55397U 23014G   23172.81307999  .00000987  00000-0  99790-5 0  9993,2 55397  69.9979  52.8992 0003630 261.5270  98.5514 15.69920904 22359,6737.26,91.724,361.571,356.68,0.0
55397.0,STARLINK-5224,PAYLOAD,2023-06-23 02:05:51,15.69932172,0.0003696,69.9985,49.3172,263.755,96.3225,1.4735e-05,1.56e-05,0.0,0 STARLINK-5224,1 55397U 23014G   23174.08740622  .00001560  00000-0  14735-4 0  9991,2 55397  69.9985  49.3172 0003696 263.7550  96.3225 15.69932172 22551,6737.228,91.724,361.583,356.603,0.0
55397.0,STARLINK-5224,PAYLOAD,2023-06-23 18:55:09,15.69904758,0.0003732,69.9971,47.3449,274.7674,85.3096,-2.1331e-05,-2.775e-05,0.0,0 STARLINK-5224,1 55397U 23014G   23174.78830687 -.00002775  00000-0 -21331-4 0  9990,2 55397  69.9971  47.3449 0003732 274.7674  85.3096 15.69904758 22666,6737.306,91.725,361.686,356.657,0.0
55397.0,STARLINK-5224,PAYLOAD,2023-06-24 01:02:09,15.69910728,0.0003505,69.9971,46.6286,266.0171,94.0624,-1.4374e-05,-1.94e-05,0.0,0 STARLINK-5224,1 55397U 23014G   23175.04316949 -.00001940  00000-0 -14374-4 0  9992,2 55397  69.9971  46.6286 0003505 266.0171  94.0624 15.69910728 22704,6737.289,91.725,361.516,356.793,0.0
55397.0,STARLINK-5224,PAYLOAD,2023-06-24 16:19:40,15.69921962,0.0003251,69.9991,44.8382,266.3973,93.6851,-7.3753e-06,-1.099e-05,0.0,0 STARLINK-5224,1 55397U 23014G   23175.68032937 -.00001099  00000-0 -73753-5 0  9996,2 55397  69.9991  44.8382 0003251 266.3973  93.6851 15.69921962 22804,6737.257,91.724,361.313,356.932,0.0
55397.0,STARLINK-5224,PAYLOAD,2023-06-25 01:30:20,15.6967508,0.0004265,70.0001,43.765,257.9525,102.1192,-0.0005086,-0.00060321,0.0,0 STARLINK-5224,1 55397U 23014G   23176.06273696 -.00060321  00000-0 -50860-3 0  9993,2 55397  70.0001  43.7650 0004265 257.9525 102.1192 15.69675080 22867,6737.964,91.739,362.702,356.955,0.0
55397.0,STARLINK-5224,PAYLOAD,2023-06-26 01:58:21,15.69798977,0.000559,69.9992,40.8959,266.863,93.1926,-0.00012235,-0.00014832,0.0,0 STARLINK-5224,1 55397U 23014G   23177.08219863 -.00014832  00000-0 -12235-3 0  9992,2 55397  69.9992  40.8959 0005590 266.8630  93.1926 15.69798977 23025,6737.609,91.731,363.24,355.708,0.0
55397.0,STARLINK-5224,PAYLOAD,2023-06-26 08:05:14,15.69920809,0.0003225,69.9991,40.1786,276.6521,83.4308,6.4796e-05,7.584e-05,0.0,0 STARLINK-5224,1 55397U 23014G   23177.33696949  .00007584  00000-0  64796-4 0  9998,2 55397  69.9991  40.1786 0003225 276.6521  83.4308 15.69920809 23067,6737.261,91.724,361.298,356.953,0.0
55397.0,STARLINK-5224,PAYLOAD,2023-06-27 20:47:16,15.69932888,0.00035,69.9982,35.8801,267.9163,92.1632,4.927e-06,3.8e-06,0.0,0 STARLINK-5224,1 55397U 23014G   23178.86616448  .00000380  00000-0  49270-5 0  9991,2 55397  69.9982  35.8801 0003500 267.9163  92.1632 15.69932888 23301,6737.226,91.724,361.449,356.733,0.0
55397.0,STARLINK-5224,PAYLOAD,2023-06-28 16:40:03,15.69924335,0.0003114,70.0,33.5493,265.5447,94.5393,6.5281e-06,5.72e-06,0.0,0 STARLINK-5224,1 55397U 23014G   23179.69448550  .00000572  00000-0  65281-5 0  9993,2 55397  70.0000  33.5493 0003114 265.5447  94.5393 15.69924335 23439,6737.25,91.724,361.213,357.017,0.0
55397.0,STARLINK-5224,PAYLOAD,2023-06-29 04:55:42,15.67709215,0.0004528,69.9978,32.1219,156.1272,204.0134,-0.0044244,-0.00460377,0.0,0 STARLINK-5224,1 55397U 23014G   23180.20534973 -.00460377  00000-0 -44244-2 0  9995,2 55397  69.9978  32.1219 0004528 156.1272 204.0134 15.67709215 23518,6743.595,91.854,368.514,362.407,0.0
55397.0,STARLINK-5224,PAYLOAD,2023-06-29 22:00:00,15.69906715,0.0003674,69.9999,30.1138,274.1974,151.2922,0.00016723,0.0001993,0.0,0 STARLINK-5224,1 55397U 23014G   23180.91667824  .00019930  00000-0  16723-3 0  9990,2 55397  69.9999  30.1138 0003674 274.1974 151.2922 15.69906715 23626,6737.301,91.725,361.641,356.691,0.0
55397.0,STARLINK-5224,PAYLOAD,2023-06-30 16:04:22,15.69916144,0.0003966,69.9973,27.9934,280.3133,79.7615,-2.4434e-05,-3.149e-05,0.0,0 STARLINK-5224,1 55397U 23014G   23181.66970374 -.00003149  00000-0 -24434-4 0  9996,2 55397  69.9973  27.9934 0003966 280.3133  79.7615 15.69916144 23749,6737.274,91.725,361.811,356.467,0.0
55397.0,STARLINK-5224,PAYLOAD,2023-07-01 16:32:24,15.69930245,0.0003711,69.9972,25.13,269.0712,91.0059,1.1927e-05,1.222e-05,0.0,0 STARLINK-5224,1 55397U 23014G   23182.68916973  .00001222  00000-0  11927-4 0  9995,2 55397  69.9972  25.1300 0003711 269.0712  91.0059 15.69930245 23905,6737.234,91.724,361.599,356.598,0.0
55397.0,STARLINK-5224,PAYLOAD,2023-07-02 15:28:41,15.69923099,0.0003622,69.9992,22.4429,268.4083,91.6698,1.979e-05,2.167e-05,0.0,0 STARLINK-5224,1 55397U 23014G   23183.64492460  .00002167  00000-0  19790-4 0  9997,2 55397  69.9992  22.4429 0003622 268.4083  91.6698 15.69923099 24055,6737.254,91.724,361.559,356.679,0.0
55397.0,STARLINK-5224,PAYLOAD,2023-07-03 15:56:43,15.69922571,0.0003507,70.0001,19.5772,268.5814,91.498,1.0857e-05,1.093e-05,0.0,0 STARLINK-5224,1 55397U 23014G   23184.66439420  .00001093  00000-0  10857-4 0  9999,2 55397  70.0001  19.5772 0003507 268.5814  91.4980 15.69922571 24216,6737.256,91.724,361.483,356.758,0.0
55397.0,STARLINK-5224,PAYLOAD,2023-07-03 22:03:43,15.69932049,0.0003317,69.9994,18.8593,264.4951,95.5866,1.8092e-05,1.964e-05,0.0,0 STARLINK-5224,1 55397U 23014G   23184.91925636  .00001964  00000-0  18092-4 0  9992,2 55397  69.9994  18.8593 0003317 264.4951  95.5866 15.69932049 24256,6737.228,91.724,361.328,356.859,0.0
55397.0,STARLINK-5224,PAYLOAD,2023-07-04 16:24:45,15.69927472,0.0003151,70.0007,16.7107,258.4958,101.5883,1.9896e-05,2.181e-05,0.0,0 STARLINK-5224,1 55397U 23014G   23185.68385840  .00002181  00000-0  19896-4 0  9999,2 55397  70.0007  16.7107 0003151 258.4958 101.5883 15.69927472 24372,6737.242,91.724,361.229,356.984,0.0
55397.0,STARLINK-5224,PAYLOAD,2023-07-05 00:03:31,15.69913223,0.0003164,69.9996,15.815,264.3708,95.7127,-1.7678e-05,-2.337e-05,0.0,0 STARLINK-5224,1 55397U 23014G   23186.00244847 -.00002337  00000-0 -17678-4 0  9998,2 55397  69.9996  15.8150 0003164 264.3708  95.7127 15.69913223 24427,6737.282,91.725,361.279,357.016,0.0
55397.0,STARLINK-5224,PAYLOAD,2023-07-05 13:49:17,15.69923782,0.0003677,69.9991,14.199,266.3797,93.6979,1.3586e-05,1.421e-05,0.0,0 STARLINK-5224,1 55397U 23014G   23186.57589495  .00001421  00000-0  13586-4 0  9996,2 55397  69.9991  14.1990 0003677 266.3797  93.6979 15.69923782 24518,6737.252,91.724,361.594,356.64,0.0
